store_name,store_number,address,address2,city,state,zip_code,country,phone_number,latitude,longitude,store_hours,store_type,other_fields,coming_soon
KICKS SPORTSWEAR,,1801 Main St ,,Baker City ,OR,97814,US,,,,,,,
Dick's Sporting Goods,,3415 North Eagle Rd. ,,Meridian ,ID,83646,US,(208) 884-2026,,,,,,
Corridor Paddle Surf Shop,,314 East 35th ,,St. Garden City ,ID,83714,US,(208) 615-4787,,,,,,
Water Ski Pro Shop,,3725 Chinden Blvd. ,,Boise ,ID,83714,US,(208) 336-3270,,,,,,
REI,,8300 West Emerald St. ,,Boise ,ID,83704,US,(208) 322-1141,,,,,,
Dick's Sporting Goods,,2235 Walker Lake Rd. ,,Ontario ,OH,44903,US,(419) 747-2727,,,,,,
Dick's Sporting Goods,,4020 Milan Rd. ,,Sandusky ,OH,44870,US,(419) 621-1660,,,,,,
Dick's Sporting Goods,,1960 Tiffin Ave. ,,Findlay ,OH,45840,US,(419) 423-5830,,,,,,
WEST MARINE,,4036 East Harbor Rd ,,Port Clinton ,OH,43452,US,,,,,,,
Dick's Sporting Goods,,1180 Polaris Pkwy ,,Columbus ,OH,43240,US,(614) 985-4729,,,,,,
Dick's Sporting Goods,,1531 Beaver Creek Commons Dr. ,,Apex ,NC,27502,US,(919) 367-0194,,,,,,
REI,,6911 Fayetteville Rd. ,,Durham ,NC,27713,US,(919) 806-3442,,,,,,
Dick's Sporting Goods,,168 Grand Hill Place ,,Holly Springs ,NC,27540,US,(919) 552-4148,,,,,,
Dick's Sporting Goods,,5422 New Hope Commons Dr. ,,Durham ,NC,27707,US,(919) 493-9884,,,,,,
DILLARDS,,1105 WALNUT STREET ,,CARY ,NC,27511,US,,,,,,,
Moosejaw,,1445 West Webster Place ,,Chicago ,IL,60614,US,(877) 666-7352,,,,,,
REI,,1466 North Halsted St. ,,Chicago ,IL,60642,US,(312) 951-6020,,,,,,
Windward Boardshop,,3317 North Clark ,,Chicago ,IL,60657,US,(773) 472-6868,,,,,,
Dick's Sporting Goods,,1100 S. Canal St. ,,Chicago ,IL,60607,US,(312) 448-2184,,,,,,
Tilly's-River Forest Town Center,,7235 Lake St. River Forest ,,,IL,60305,US,,,,,,,
Dick's Sporting Goods,,250 Town Center Pkwy ,,Slidell ,LA,70458,US,(985) 718-3252,,,,,,
DILLARDS,,150 NORTH SHORE BLVD SUITE # 2000 ,,SLIDELL ,LA,70460,US,,,,,,,
DILLARDS,,2600 BEACH BLVD STE 1 ,,BILOXI ,MS,39531,US,,,,,,,
Dick's Sporting Goods,,3893 Promenade Pkwy ,,D'Iberville ,MS,39540,US,(228) 392-1607,,,,,,
LE CAFE BEIGNET,,136 Rue Magnolia ,,Biloxi ,MS,39530,US,,,,,,,
Tilly's-Stonewood Center,,140 Stonewood Street ,,Downey ,CA,90241,US,,,,,,,
Tilly's-Citadel Outlets Shopping Center,,100 Citadel Drive Suite 317 ,,Commerce ,CA,90040,US,,,,,,,
Xtreme Boardshop,,300 Lakewood Center Mall ,,Lakewood ,CA,90712,US,(562) 634-0734,,,,,,
MOTOR HELMETS,,1871 W Commonwealth Ave ,,Fullerton ,CA,92833,US,,,,,,,
Tilly's-Long Beach Towne Center,,7350 Carson Blvd. ,,Long Beach ,CA,90808,US,,,,,,,
Dick's Sporting Goods,,10204A Two Notch Rd. ,,Columbia ,SC,29229,US,(803) 699-8380,,,,,,
Dick's Sporting Goods,,548 John Ross Pkwy ,,Rock Hill ,SC,29730,US,(803) 324-2393,,,,,,
Sun & Ski,,5341 Ballantyne Commons Pkwy ,,Charlotte ,NC,28277,US,(704) 246-1930,,,,,,
Dick's Sporting Goods,,1110 Bower Pkwy ,,Columbia ,SC,29212,US,(803) 749-0756,,,,,,
REI,,11067 Carolina Place Pkwy ,,Pineville ,NC,28134,US,(704) 341-7405,,,,,,
COASTAL CRUISIN THREADS,,2249 WEALTHY STREET SE ,,Grand Rapids ,MI,49506,US,,,,,,,
Dick's Sporting Goods,,3660 Rivertown Pkwy SW ,,Grandville ,MI,49418,US,(616) 249-0660,,,,,,
Tilly's-RiverTown Crossings,,3700 RiverTown Parkway # 2054 ,,Grandville ,MI,49418,US,,,,,,,
Dick's Sporting Goods,,5118 28th St. SE ,,Grand Rapids ,MI,49512,US,(616) 977-2301,,,,,,
Action Water Sports,,4155 32nd Ave. ,,Hudsonville ,MI,49426,US,(616) 396-3100,,,,,,
Dick's Sporting Goods,,1910 Valley View Blvd. NW ,,Roanoke ,VA,24012,US,(540) 265-0861,,,,,,
Dick's Sporting Goods,,500 New River Rd. ,,Christiansburg ,VA,24073,US,(540) 381-0102,,,,,,
Smith Mountain Wake,,16440 Booker T Washington Hwy ,,Moneta ,VA,24121,US,(540) 721-9253,,,,,,
Dick's Sporting Goods,,4026 Wards Rd. ,,Lynchburg ,VA,24502,US,(434) 832-5666,,,,,,
Dick's Sporting Goods,,145 Holt Garrison Pkwy ,,Danville ,VA,24540,US,(434) 792-9612,,,,,,
Dick's Sporting Goods,,2925 Concord Rd. ,,York ,PA,17402,US,(717) 751-4450,,,,,,
Dick's Sporting Goods,,1313 Kenneth Rd. ,,York ,PA,17404,US,(717) 848-1696,,,,,,
Herhsey Park,,100 W Hersheypark Dr. ,,Hershey ,PA,17033,US,(800) 437-7439,,,,,,
Dick's Sporting Goods,,1155 Carlisle St. ,,Hanover ,PA,17331,US,(717) 632-9362,,,,,,
Dick's Sporting Goods,,5086 Jonestown Rd. ,,Harrisburg ,PA,17112,US,(717) 652-3174,,,,,,
Macys- Boise Towne Square,,370 N Milwaukee St ,,Boise ,ID,83704,US,(208) 373-6000,,,,,,
Dick's Sporting Goods,,131 N. Milwaukee St. ,,Boise ,ID,83704,US,(208) 999-3475,,,,,,
Dick's Sporting Goods,,16905 N. Marketplace Blvd. ,,Nampa ,ID,83687,US,(208) 546-3433,,,,,,
Bob Ward's Sporting Goods,,1120 N 1st St ,,Hamilton ,MT,59840,US,(406) 363-6204,,,,,,
Bob Ward's Sporting Goods,,3015 Paxson St ,,Missoula ,MT,59801,US,(406) 728-3220,,,,,,
Dick's Sporting Goods,,360 Market Dr. ,,Elyria ,OH,44035,US,(440) 324-4100,,,,,,
REI,,6424 Sawmill Rd. ,,Columbus ,OH,43235,US,(614) 799-1938,,,,,,
Dick's Sporting Goods,,6111 Sawmill Rd. ,,Dublin ,OH,43017,US,(614) 798-1111,,,,,,
REI,,4150 Worth Ave. ,,Columbus ,OH,43219,US,(614) 785-0177,,,,,,
Dick's Sporting Goods,,4304 Easton Gateway Dr. ,,Columbus ,OH,43219,US,(614) 472-4250,,,,,,
REI,,1751 Walnut St. ,,Cary ,NC,27511,US,(919) 460-9995,,,,,,
Tilly's-Crossroads Plaza,,301 Crossroads Blvd. ,,Cary ,NC,27518,US,,,,,,,
Dick's Sporting Goods,,401 Crossroads Blvd. ,,Cary ,NC,27518,US,(919) 851-7721,,,,,,
Water World Marine,,135 S Miami Blvd. ,,Durham ,NC,27703,US,(919) 596-8185,,,,,,
Dick's Sporting Goods,,8021 Brier Creek Pkwy ,,Raleigh ,NC,27617,US,(919) 806-5153,,,,,,
Dick's Sporting Goods,,1968 Pavillion Way ,,Lexington ,KY,40509,US,(859) 264-8800,,,,,,
Dick's Sporting Goods,,3645 Nicholasville Rd. ,,Lexington ,KY,40503,US,(859) 273-1642,,,,,,
Dick's Sporting Goods,,2145 Lantern Ridge Dr. ,,Richmond ,KY,40475,US,(859) 353-3009,,,,,,
Dick's Sporting Goods,,7800 John Davis Dr. ,,Frankfort ,KY,40601,US,(502) 871-3624,,,,,,
Dick's Sporting Goods,,1336 Hansel Ave. ,,Suite Florence ,KY,41042,US,(859) 283-2702,,,,,,
Dick's Sporting Goods,,197 Westbank Expy ,,Gretna ,LA,70053,US,(504) 361-3869,,,,,,
Dick's Sporting Goods,,3301 Veterans Memorial Blvd. ,,Metairie ,LA,70002,US,(504) 835-0091,,,,,,
DILLARDS,,1000 TURTLE CREEK DRIVE ,,HATTIESBURG ,MS,39402,US,,,,,,,
Dick's Sporting Goods,,1000 Turtle Creek Rd. ,,Hattiesburg ,MS,39402,US,(601) 264-6648,,,,,,
DILLARDS,,1990 HAMMOND SQUARE DRIVE ,,HAMMOND ,LA,70403,US,,,,,,,
MACY'S,,11001 Carolina Pl Pkwy ,,Pineville ,NC,28134,US,,,,,,,
Dick's Sporting Goods,,9600 Pineville-Matthews Rd. ,,Pineville ,NC,28134,US,(704) 540-4750,,,,,,
Dick's Sporting Goods,,10530 NE Pkwy ,,Matthews ,NC,28105,US,(704) 841-3959,,,,,,
NORDSTROM,,4400 Sharon Rd ,,Charlotte ,NC,28211,US,,,,,,,
WEST MARINE,,13000 York Rd. Suite # k ,,Charlotte ,NC,28278,US,,,,,,,
Dick's Sporting Goods,,3530 W Shore Dr. ,,Holland ,MI,49424,US,(616) 820-0118,,,,,,
Reliable Cycle & Ski,,254 River Ave. ,,Holland ,MI,49423,US,(616) 396-7795,,,,,,
Mackinaw Kite Co.,,106 Washington ,,Grand Haven ,MI,49417,US,(616) 846-7501,,,,,,
Dick's Sporting Goods,,5660 South Harvey St. ,,Muskegon ,MI,49444,US,(231) 798-8003,,,,,,
Outpost Sports,,114 Dykman Ave. ,,South Haven ,MI,49090,US,(269) 637-5555,,,,,,
Dick's Sporting Goods,,540 West MacPhail Rd. ,,Bel Air ,MD,21014,US,(410) 638-7404,,,,,,
Dick's Sporting Goods,,118 Shawan Rd. ,,Cockeysville ,MD,21030,US,(410) 584-9050,,,,,,
Dick's Sporting Goods,,5950 Carlisle Pike ,,Mechanicsburg ,PA,17050,US,(717) 766-8377,,,,,,
Dick's Sporting Goods,,400 North Center St. ,,Westminster ,MD,21157,US,(410) 848-1039,,,,,,
REI,,63 West Aylesbury Rd. ,,Timonium ,MD,21093,US,(410) 252-5920,,,,,,
Tilly's-Easton Market,,3730 Easton Market ,,Columbus ,OH,43219,US,,,,,,,
Dick's Sporting Goods,,771 South 30th St. ,,Heath ,OH,43056,US,(740) 522-5555,,,,,,
Dick's Sporting Goods,,1825 Hilliard Rome Rd. ,,Hilliard ,OH,43026,US,(614) 777-1396,,,,,,
Dick's Sporting Goods,,200 Great Northern Mall ,,North Olmsted ,OH,44070,US,(440) 686-2400,,,,,,
Dick's Sporting Goods,,17071 SouthPark Center ,,Strongsville ,OH,44136,US,(440) 268-9153,,,,,,
DILLARDS,,1003 BOSTON DRIVE ,,BURLINGTON ,NC,27215,US,,,,,,,
Dick's Sporting Goods,,1465 Boone Station Dr. ,,Burlington ,NC,27215,US,(336) 584-7545,,,,,,
WHALEBONE SURF SHOP,,4209 Lassiter Mill Rd # 102 ,,Raleigh ,NC,27609,US,(919) 758-8362,,,,,,
Whalebone Surf Shop,,4209 Lassister Mill Rd. ,,Raleigh ,NC,27609,US,(919) 758-8362,,,,,,
REI,,4291 The Circle at ,,North Hills Raleigh ,NC,27609,US,(919) 571-5031,,,,,,
Dick's Sporting Goods,,650 Eastgate South Dr. ,,Cincinnati ,OH,45245,US,(513) 752-5525,,,,,,
Dick's Sporting Goods,,175 Pavilion Pkwy ,,Newport ,KY,41071,US,(859) 261-1348,,,,,,
Dick's Sporting Goods,,3555 Springhurst Blvd. ,,Louisville ,KY,40241,US,(502) 429-0776,,,,,,
Dick's Sporting Goods,,3500 S Hurstbourne Pkwy ,,Louisville ,KY,40299,US,(502) 499-9029,,,,,,
REI,,2643 Edmondson Rd. ,,Cincinnati ,OH,45209,US,(513) 924-1938,,,,,,
WEST MARINE,,3658-B AIRPORT BLVD ,,MOBILE ,AL,36561,US,,,,,,,
Adrenaline Surf,,328 Fairhope Ave. ,,Fairhope ,AL,36532,US,(251) 990-0699,,,,,,
Dick's Sporting Goods,,6850 US Hwy 90 ,,Daphne ,AL,36526,US,(251) 621-0031,,,,,,
DILLARDS,,5953 WEST PARK AVE SUITE # 1000 ,,HOUMA ,LA,70364,US,,,,,,,
Dick's Sporting Goods,,9330 Mall of Louisianna Blvd. ,,Baton Rouge ,LA,70836,US,(225) 766-9100,,,,,,
STRONG WATER,,614 S Higgins Ave ,,Missoula ,Mt,59801,US,,,,,,,
REI,,3275 North Reserve St. ,,Missoula ,MT,59808,US,(406) 541-1938,,,,,,
REI,,129 North Ely ,,Kennewick ,WA,99336,US,(509) 734-8989,,,,,,
Sporthaus Northwest,,326 N Columbia Center Blvd. ,,Kennewick ,WA,99336,US,(509) 735-7555,,,,,,
Macy's- Columbia Center,,400 N Columbia Center Blvd ,,Kennewick ,WA,99336,US,(509) 734-6000,,,,,,
Dick's Sporting Goods,,4325 Barclay Downs Rd. ,,Charlotte ,NC,28209,US,(704) 972-9400,,,,,,
Dick's Sporting Goods,,2701 David H McLeod Blvd. ,,Florence ,SC,29501,US,(843) 413-1321,,,,,,
Tilly's-Charlotte Premium Outlets,,5512 New Fashion Way Suite 1060 ,,Charlotte ,NC,28278,US,,,,,,,
Southtown Watersports,,3333 Scott Futrell Dr. ,,Charlotte ,NC,28208,US,(704) 837-0950,,,,,,
Dick's Sporting Goods,,8809 JW Clay Blvd. ,,Charlotte ,NC,28262,US,(704) 295-4411,,,,,,
Dick's Sporting Goods,,6355 Westnedge Ave. ,,Portage ,MI,49002,US,(269) 329-1956,,,,,,
The Edge,,9009 Portage Rd. ,,Portage ,MI,49002,US,(269) 327-1000,,,,,,
Dick's Sporting Goods,,2801 Preyde Blvd. ,,Lansing ,MI,48912,US,(517) 702-1300,,,,,,
Dick's Sporting Goods,,4228 E. Bluegrass Rd. ,,Mt. Pleasant ,MI,48858,US,(989) 772-1990,,,,,,
Moosejaw,,555 East Grand River Ave. ,,East Lansing ,MI,48823,US,(877) 666-7352,,,,,,
BOSCOVS,,8200 Perry Hall Boulevard ,,Baltimore ,MD,21236,US,,,,,,,
Dick's Sporting Goods,,5220 Campbell Blvd. ,,Baltimore ,MD,21236,US,(410) 933-0134,,,,,,
Bay Boat Works,,145 Hances Point Rd. ,,North East ,MD,21901,US,(410) 287-8113,,,,,,
Dick's Sporting Goods,,2767 Paper Mill Rd. ,,Reading ,PA,19610,US,(610) 373-7366,,,,,,
WEST MARINE,,8640 PULASKI HWY SUITE 105 ,,BALTIMORE ,MD,21237,US,,,,,,,
Dick's Sporting Goods,,7900 Shelbyville Rd. ,,Louisville ,KY,40222,US,(502) 420-6400,,,,,,
Dick's Sporting Goods,,5555 Glenway Ave. ,,Cincinnati ,OH,45238,US,(513) 347-7570,,,,,,
Tilly's-Mall St. Matthews,,5000 Shelbyville Rd. 1615 ,,Louisville ,KY,40207,US,,,,,,,
Dick's Sporting Goods,,7800 Montgomery Rd. ,,Cincinnati ,OH,45236,US,(513) 793-1033,,,,,,
Sun & Ski,,7565 Kenwood Rd. ,,Cincinnati ,OH,45236,US,(513) 745-0099,,,,,,
Dick's Sporting Goods,,145 Shenstone Lane ,,Garner ,NC,27529,US,(919) 662-4177,,,,,,
Overtons,,6101 Capital Blvd. ,,Raleigh ,NC,27616,US,(919) 322-3214,,,,,,
DILLARDS,,3501 SUMNER BLVD ,,RALEIGH ,NC,27616,US,,,,,,,
Dick's Sporting Goods,,3630 Sumner Blvd. ,,Raleigh ,NC,27616,US,(919) 792-9090,,,,,,
Dick's Sporting Goods,,216 Hinton Oaks Blvd. ,,Knightdale ,NC,27545,US,(919) 266-7876,,,,,,
Dick's Sporting Goods,,120 Crossroad Mall Mt. ,,Hope ,WV,25880,US,(304) 252-3425,,,,,,
Dick's Sporting Goods,,164 Hanes Mall Circle ,,Winston Salem ,NC,27103,US,(336) 659-3557,,,,,,
REI,,3334 West Friendly Ave. ,,Greensboro ,NC,27410,US,(336) 323-3117,,,,,,
BOARD PARADISE,,1604 Battleground Ave ,,Greensboro ,NC,27408,US,,,,,,,
Dick's Sporting Goods,,1208 Bridford Pkwy ,,Greensboro ,NC,27407,US,(336) 856-8875,,,,,,
Duke & Duchess,,9091 Walker St. ,,Cypress ,CA,90630,US,(714) 826-5540,,,,,,
Tilly's-Plaza West Covina,,112 Plaza Drive Unit 460 ,,West Covina ,CA,91790,US,,,,,,,
Macy's- Los Angeles Downtown Plaza,,750 W 7th St ,,Los Angeles ,CA,90017,US,(213) 628-9311,,,,,,
SHOE CITY,,268 S Rosemead Blvd ,,Pasadena ,CA,91107,US,,,,,,,
Macy's- Brea Mall,,200 Brea Mall ,,Brea ,CA,92821,US,(714) 990-1400,,,,,,
Dick's Sporting Goods,,11800 W Broad St. ,,Richmond ,VA,23233,US,(804) 360-8165,,,,,,
NORDSTROM,,11812 W Broad St ,,Richmond ,VA,23233,US,,,,,,,
REI,,2020 Old Brick Rd. ,,Glen Allen ,VA,23060,US,(804) 360-1381,,,,,,
Peter Glenn Ski & Sport,,9507 West Broad St. ,,Richmond ,VA,23294,US,(804) 527-2020,,,,,,
Dick's Sporting Goods,,5601 Touhy Ave. ,,Niles ,IL,60714,US,(847) 779-8800,,,,,,
Tilly's-Village Crossing,,5411 Touhy Ave. ,,Skokie ,IL,60077,US,,,,,,,
The Shred Shop,,3855 West Oakton St. ,,Skokie ,IL,60076,US,(847) 679-3060,,,,,,
Dick's Sporting Goods,,1900 Tower Dr. ,,Glenview ,IL,60026,US,(847) 730-7400,,,,,,
REI,,17 West 160 22nd St. ,,Oakbrook Terrace ,IL,60181,US,(630) 574-7700,,,,,,
Dick's Sporting Goods,,9940 Brook Rd. ,,Glen Allen ,VA,23059,US,(804) 261-1853,,,,,,
Dick's Sporting Goods,,300 Crocker Park Blvd. ,,Westlake ,OH,44145,US,(440) 835-3723,,,,,,
Dick's Sporting Goods,,4036 Medina Rd. ,,Akron ,OH,44333,US,(330) 668-1231,,,,,,
Power Sports Of Cleveland,,5475 Engle Rd. ,,Cleveland ,OH,44140,US,(216) 433-9011,,,,,,
Dick's Sporting Goods,,1656 Stringtown Rd. ,,Grove City ,OH,43123,US,(614) 801-1033,,,,,,
Dick's Sporting Goods,,1407 Spring Meadow Dr. ,,Holland ,OH,43528,US,(419) 867-0810,,,,,,
Tilly's-Columbia Center,,1321 N. Columbia Center Blvd 355A ,,Kennewick ,WA,99336,US,,,,,,,
Dick's Sporting Goods,,1939 Fillmore St. ,,Twin Falls ,ID,83301,US,(208) 944-3105,,,,,,
Bob Ward's Sporting Goods,,1925 Dewey Blvd ,,Butte ,MT,59701,US,(406) 494-4452,,,,,,
Spokane Alpine Haus,,2925 South Regal St. ,,Spokane ,WA,99223,US,(509) 534-4554,,,,,,
Macy's- Silver Lake Mall,,200 W Hanley Ave # 4 ,,Coeur d\\\'Alene ,ID,83815,US,(208) 772-8700,,,,,,
Dick's Sporting Goods,,1982 W. Grand River Ave. ,,Okemos ,MI,48864,US,(517) 853-0400,,,,,,
Outpost Sports,,800 Lions Park Dr. ,,St. Joesph ,MI,49285,US,(269) 983-2010,,,,,,
GLIK'S,,109 E Ludington Ave ,,Ludington ,MI,49431,US,,,,,,,
Tilly's-University Park Mall,,6501 N. Grape Road 448 ,,Mishawaka ,IN,46545,US,,,,,,,
Dick's Sporting Goods,,4520 Grape Rd. ,,Mishawaka ,IN,46545,US,(574) 243-4789,,,,,,
MASSEY'S PRO OUTFITTERS,,7519 Corporate Blvd ,,Baton Rouge ,LA,70809,US,,,,,,,
Bennett'S Boat & Ski,,18605 Barnett Rd. ,,Zachary ,LA,70791,US,(225) 654-0245,,,,,,
Ron Jon Surf Shop,,22723 Perdido Beach Blvd. ,,Orange Beach ,AL,36561,US,(251) 981-8008,,,,,,
WEST MARINE,,24369 Commercial Ave ,,Orange Beach ,AL,36561,US,,,,,,,
Dick's Sporting Goods,,5100 N 9th Ave. ,,Pensacola ,FL,32504,US,(850) 478-9605,,,,,,
REI,,9755 Northlake Centre Pkwy ,,Charlotte ,NC,28216,US,(704) 921-0320,,,,,,
Sun & Ski,,8381 Concord Mills Blvd. ,,Concord ,NC,28027,US,(704) 979-6500,,,,,,
Dick's Sporting Goods,,6445 Northlake Mall Dr. ,,Charlotte ,NC,28216,US,(704) 598-2577,,,,,,
Dick's Sporting Goods,,415 Cox Rd. ,,Gastonia ,NC,28054,US,(704) 810-0994,,,,,,
Dick's Sporting Goods,,6080 Bayfield Pkwy ,,Concord ,NC,28027,US,(704) 262-7373,,,,,,
MARSH CREEK WATERSPORTS,,675 Park Rd ,,Downingtown ,PA,19335,US,,,,,,,
The Ski Bum,,218 East Main St. ,,Newark ,DE,19711,US,,,,,,,
FELLS POINT SURF CO,,1631 Thames St ,,Baltimore ,MD,21231,US,,,,,,,
Dick's Sporting Goods,,1026 E. Lancaster Ave. ,,Downingtown ,PA,19335,US,(610) 518-5200,,,,,,
Tilly's-Christiana Mall,,520 Christiana Mall ,,Newark ,DE,19702,US,,,,,,,
Dick's Sporting Goods,,469 River Hill Dr. ,,Ashland ,KY,41101,US,(606) 327-5561,,,,,,
Dick's Sporting Goods,,975 East Kemper Rd. ,,Springdale ,OH,45246,US,(513) 671-0707,,,,,,
Dick's Sporting Goods,,10220 Colerain Ave. ,,Cincinnati ,OH,45251,US,(513) 741-0800,,,,,,
Dick's Sporting Goods,,951 East Lewis & Clark Pkwy ,,Clarksville ,IN,47129,US,(812) 288-2194,,,,,,
Dick's Sporting Goods,,5700 Deerfield Blvd. ,,Mason ,OH,45040,US,(513) 770-4070,,,,,,
DILLARDS,,125 FOUR SEASONS TOWN CENTER ,,GREENSBORO ,NC,27407,US,,,,,,,
Dick's Sporting Goods,,2051 Skibo Rd. ,,Fayetteville ,NC,28314,US,(910) 867-8566,,,,,,
Dick's Sporting Goods,,14014 East Indiana Ave. ,,Spokane Valley ,WA,99216,US,(509) 891-0977,,,,,,
Spokane Alpine Haus,,12710 E Indiana Ave. ,,Spokane Valley ,WA,99216,US,(509) 927-2505,,,,,,
Dick's Sporting Goods,,9204 Stony Point Pkwy ,,Richmond ,VA,23235,US,(804) 253-0800,,,,,,
Dick's Sporting Goods,,1520 Koger Center Blvd. North ,,Chesterfield ,VA,23235,US,(804) 897-5299,,,,,,
Stevies Inc / Ski Center,,15809 WC Main St. ,,Midlothian ,VA,23113,US,(804) 794-8500,,,,,,
PACSUN,,11500 MIDLOTHIAN TURNPIKE ,,RICHMOND ,VA,23235,US,,,,,,,
Dick's Sporting Goods,,14629 Hancock Village St. ,,Chesterfield ,VA,23832,US,(804) 639-1107,,,,,,
INNERLIGHT,,6307 N 9th Ave ,,Pensacola ,FL,32504,US,,,,,,,
Innerlight Surf Shop,,6307 North 9th Ave. ,,Pensacola ,FL,32504,US,(850) 932-5134,,,,,,
Tilly's-Cordova Mall,,5100 N 9th Ave # B201A ,,Pensacola ,FL,32504,US,,,,,,,
Dick's Sporting Goods,,720 MacKenzie Lane ,,Flowood ,MS,39232,US,(601) 992-2341,,,,,,
Innerlight Surf Shop,,203 Gulf Breeze Pkwy ,,Gulf Breeze ,FL,32561,US,(850) 932-5134,,,,,,
Dick's Sporting Goods,,100 Center Dr. ,,Newark ,DE,19702,US,(302) 738-8322,,,,,,
Dick's Sporting Goods,,351 W Schuylkill Rd. ,,Pottstown ,PA,19465,US,(610) 323-7100,,,,,,
Dick's Sporting Goods,,6633 Ritchie Hwy Glen ,,Burnie ,MD,21061,US,(410) 768-9372,,,,,,
WEST MARINE,,595 E Ordnance Rd ,,Glen Burnie ,MD,21060,US,,,,,,,
NORDSTROM,,10300 Little Patuxent Pkwy ,,Columbia ,MD,21044,US,,,,,,,
Hern Marine,,147 Circle Freeway Dr. ,,Cincinnati ,OH,45246,US,(513) 874-2628,,,,,,
Wake Nation,,201 Joe Nexhall Way ,,Fairfield ,OH,45014,US,(513) 887-9253,,,,,,
Dick's Sporting Goods,,3355 Princeton Rd. ,,Hamilton ,OH,45011,US,(513) 892-4302,,,,,,
Dick's Sporting Goods,,60 Mall Rd. ,,Barboursville ,WV,25504,US,(304) 733-9720,,,,,,
Dick's Sporting Goods,,2700 Miamisburg Centerville Rd. ,,Dayton ,OH,45459,US,(937) 436-5754,,,,,,
Outpost Sports,,3602 Grape Rd. ,,Mishawaka ,IN,46545,US,(574) 259-1000,,,,,,
Dick's Sporting Goods,,3343 Tittabawassee Rd. ,,Saginaw ,MI,48604,US,(989) 793-3346,,,,,,
Boater'S Choice Marine,,12011 Brooklyn Rd. ,,Brooklyn ,MI,49230,US,(517) 592-3989,,,,,,
Ride The Wave,,2060 North 200 ,,West Angola ,IN,46703,US,(260) 833-6754,,,,,,
Outpost Sports,,105 W. Buffalo ,,New Buffalo ,MI,49117,US,(269) 469-4210,,,,,,
Tilly's-Cross Creek Mall,,109 Cross Creek Mall ,,Fayetteville ,NC,28303,US,,,,,,,
Dick's Sporting Goods,,505 Eastgate Dr. ,,Goldsboro ,NC,27534,US,(919) 221-6331,,,,,,
Wake Edgers,,200 Boardwalk Way ,,Mineral ,VA,23117,US,(540) 894-5970,,,,,,
Dick's Sporting Goods,,324 Southpark Circle ,,Colonial Heights ,VA,23834,US,(804) 526-2745,,,,,,
Dick's Sporting Goods,,137 Spotsylvania Mall ,,Fredericksburg ,VA,22407,US,(540) 548-1200,,,,,,
Dick's Sporting Goods,,9721 Jefferson Davis Pkwy ,,Fredericksburg ,VA,22407,US,(540) 834-4561,,,,,,
Tilly's-Central Park,,1270 Carl D. Silver Parkway ,,Fredericksburg ,VA,22401,US,,,,,,,
DILLARDS,,1078 Bonita Lakes Dr ,,Meridian ,MS,39301,US,,,,,,,
Dick's Sporting Goods,,175 Grandview Blvd. ,,Madison ,MS,39110,US,(601) 853-4373,,,,,,
DILLARDS,,5725 JOHNSTON ROAD ,,LAFAYETTE ,LA,70503,US,,,,,,,
DOG HOUSE SURF SHOP,,246 Miracle Strip Pkwy SE ,,Fort Walton Beach ,FL,32548,US,,,,,,,
Scuba Tech,,301 Hwy 98 ,,East Destin ,FL,32541,US,(850) 837-2822,,,,,,
Tilly's-Fullerton Metro Center,,1429 S. Harbor Blvd. ,,Fullerton ,CA,92832,US,,,,,,,
REI,,214 North Santa Anita Ave. ,,Arcadia ,CA,91006,US,(626) 447-1062,,,,,,
Tilly's-Hastings Village,,3365 E. Foothill Blvd. ,,Pasadena ,CA,91107,US,,,,,,,
Tilly's-Cypress Plaza,,6836 Katella Ave ,,Cypress ,CA,90630-5108,US,,,,,,,
Dick's Sporting Goods,,3359 East Foothill Blvd. ,,Pasadena ,CA,91107,US,(626) 351-1843,,,,,,
Eastern Mountain Sports,,4737 Concord Pike ,,Wilmington ,DE,19803,US,(302) 477-0859,,,,,,
Dick's Sporting Goods,,1000 Brandywine Pkwy ,,Wilmington ,DE,19803,US,(302) 477-9577,,,,,,
REI,,6100 Dobbin Rd. ,,Columbia ,MD,21045,US,(410) 872-1742,,,,,,
Dick's Sporting Goods,,6221 Columbia Crossing Circle ,,Columbia ,MD,21045,US,(410) 872-1100,,,,,,
Tilly's-Arundel Mills Mall,,7000 Arundel Mills Circle 212A ,,Hanover ,MD,21076,US,,,,,,,
Dick's Sporting Goods,,1925 East Market St. ,,Harrisonburg ,VA,22801,US,(540) 433-1268,,,,,,
Dick's Sporting Goods,,1940 Rio Hill Center ,,Charlottesville ,VA,22901,US,(434) 974-5640,,,,,,
Dick's Sporting Goods,,309 E. Coliseum Blvd. ,,Fort Wayne ,IN,46805,US,(260) 470-4224,,,,,,
Tilly's-Glenbrook Square,,4201 Coldwater Rd. ,,Space E05 Fort Wayne ,IN,46805,US,,,,,,,
Dick's Sporting Goods,,1520 Apple Glen Blvd. ,,Ft Wayne ,IN,46804,US,(260) 434-0181,,,,,,
Lake Life Clothing,,135 Clary Lane ,,Henrico ,NC,27842,US,(252) 537-1988,,,,,,
Dick's Sporting Goods,,590 J River Hwy ,,Mooresville ,NC,28117,US,(704) 662-9066,,,,,,
WEST MARINE,,862-b Hwy 98 ,,East Destin ,FL,32541,US,,,,,,,
Ono Surf Shop,,2236 East 30A ,,Santa Rosa Beach ,FL,32459,US,(850) 231-1573,,,,,,
Tilly's-Brea Union Plaza,,2365 E. Imperial Hwy ,,Brea ,CA,92821,US,,,,,,,
Dick's Sporting Goods,,2753 East Eastland Center Dr. ,,West Covina ,CA,91791,US,(626) 331-8227,,,,,,
BERTS MEGA MALL,,1151 N Azusa Ave ,,Covina ,CA,91722,US,,,,,,,
SHOE CITY,,3650 W Martin Luther King Jr Blvd ,,Los Angeles ,CA,90008,US,(323) 294-4766,,,,,,
Tilly's-Belmont Shore,,5286 E. 2nd Street ,,Long Beach ,CA,90803-5331,US,,,,,,,
Dick's Sporting Goods,,8113 W Ridgewood Dr. ,,Parma ,OH,44129,US,(440) 345-3035,,,,,,
Red Sky,,3135 West Central ,,Toledo ,OH,43606,US,(419) 536-3204,,,,,,
Dick's Sporting Goods,,851 West Alexis Rd. ,,Toledo ,OH,43612,US,(419) 269-2262,,,,,,
Dick's Sporting Goods,,5001 Monroe St. ,,Toledo ,OH,43623,US,(419) 474-0170,,,,,,
Dick's Sporting Goods,,498 Howe Ave. ,,Cuyahoga Falls ,OH,44221,US,(330) 923-8224,,,,,,
Dick's Sporting Goods,,8825 Townley Rd. ,,Huntersville ,NC,28078,US,(704) 896-6244,,,,,,
ICY WAVES SURF SHOP,,20601 Torrence Chapel Rd ,,Cornelius ,NC,28031,US,,,,,,,
Dick's Sporting Goods,,205 West Blackstock Rd. ,,Spartanburg ,SC,29301,US,(864) 595-9455,,,,,,
DILLARDS,,1930 US HIGHWAY 70 SE ,,HICKORY ,NC,28602,US,,,,,,,
Tilly's-The Greene,,4453 Glengarry Drive ,,Beavercreek ,OH,45440,US,,,,,,,
Dick's Sporting Goods,,2727 Fairfield Commons ,,Beavercreek ,OH,45431,US,(937) 426-2955,,,,,,
Dick's Sporting Goods,,8220 Old Troy Pike ,,Huber Heights ,OH,45424,US,(937) 237-1900,,,,,,
Dick's Sporting Goods,,3718 National Rd. ,,East Richmond ,IN,47374,US,(765) 373-9607,,,,,,
Dick's Sporting Goods,,51 R H L Blvd. South ,,Charleston ,WV,25309,US,(304) 746-6256,,,,,,
REI,,888 Willow Rd. ,,Northbrook ,IL,60062,US,(847) 480-1938,,,,,,
Dick's Sporting Goods,,810 E. Butterfield Rd. ,,Lombard ,IL,60148,US,(630) 317-0200,,,,,,
Dick's Sporting Goods,,601 North Martingale ,,Schaumburg ,IL,60173,US,(847) 995-0200,,,,,,
Tilly's-Woodfield Mall,,E314A Woodfield Mall ,,Schaumburg ,IL,60173,US,,,,,,,
Dick's Sporting Goods,,401 East Palatine Rd. ,,Arlington Heights ,IL,60004,US,(847) 577-1283,,,,,,
Dick's Sporting Goods,,15359 Montanus Dr. ,,Culpeper ,VA,22701,US,(540) 317-4839,,,,,,
Dick's Sporting Goods,,120 Gristmil Plaza ,,Williamsburg ,VA,23185,US,(757) 258-3364,,,,,,
REI,,15200 Potomac Town Place ,,Woodbridge ,VA,22191,US,(703) 583-1938,,,,,,
Tilly's-Potomac Mills Mall,,2700 Potomac Mills Circle Unit 319 ,,Woodbridge ,VA,22192,US,,,,,,,
Dick's Sporting Goods,,400 Front St. ,,Collegeville ,PA,19426,US,(610) 409-9790,,,,,,
Tilly's-Providence Town Center,,20 Town Center Drive 1 ,,Collegeville ,PA,19426,US,,,,,,,
Dick's Sporting Goods,,5500 Buckeystown Pike ,,Frederick ,MD,21703,US,(240) 772-3181,,,,,,
Dick's Sporting Goods,,160 N. Gulph Rd. ,,King of Prussia ,PA,19406,US,(484) 751-0071,,,,,,
Dick's Sporting Goods,,1417 South Main Chapel Way ,,Gambrills ,MD,21054,US,(410) 721-4941,,,,,,
Action Water Sports,,8051 Old US-23 ,,Fenton ,MI,48430,US,(248) 674-1932,,,,,,
Silver Spray Sports,,4037 West Silver Lake Rd. ,,Fenton ,MI,48430,US,(810) 629-6370,,,,,,
Isnorkel,,1136 Baker Rd. ,,Dexter ,MI,48130,US,(734) 253-2461,,,,,,
Dick's Sporting Goods,,9550 Village Place Blvd. ,,Brighton ,MI,48116,US,(810) 225-4849,,,,,,
Moosejaw,,327 South Main St. ,,Ann Arbor ,MI,48104,US,(877) 666-7352,,,,,,
Dick's Sporting Goods,,1165 Vann Dr. ,,Jackson ,TN,38305,US,(731) 660-4344,,,,,,
Dick's Sporting Goods,,2801 Wilma Rudolph Blvd. ,,Clarksville ,TN,37040,US,(931) 645-2255,,,,,,
Dick's Sporting Goods,,5101 Hinkleville Rd. ,,Paducah ,KY,42001,US,(270) 442-0100,,,,,,
Dick's Sporting Goods,,6812 Charlotte Pike ,,Nashville ,TN,37209,US,(615) 354-0102,,,,,,
Sun & Ski,,545 Cool Springs Blvd. ,,Franklin ,TN,37067,US,(615) 628-0289,,,,,,
Bart's Water Ski Center,,7581 East 800 North ,,North Webster ,IN,46555,US,(574) 834-7666,,,,,,
Dick's Sporting Goods,,3500 Galleria Dr. ,,Greenville ,NC,27834,US,(252) 329-0241,,,,,,
Dick's Sporting Goods,,6601 Springfield Mall ,,Springfield ,VA,22150,US,(571) 255-6367,,,,,,
Fairfax Surf Shop,,3936 Old Lee Hwy ,,Fairfax ,VA,22030,US,(703) 273-0015,,,,,,
REI,,3509 Carlin Springs Rd. ,,Bailey's Crossroads ,VA,22041,US,(703) 379-9400,,,,,,
Dick's Sporting Goods,,5714 Columbia Pike ,,Bailey Crossroads ,VA,22041,US,(703) 933-0736,,,,,,
Sun & Ski,,6280 Seven Corners Center Falls ,,Church ,VA,22044,US,(703) 521-1700,,,,,,
Dick's Sporting Goods,,542 West Prien Lake Rd. ,,Lake Charles ,LA,70601,US,(337) 478-1488,,,,,,
REI,,2225 Harvard Way ,,Reno ,NV,89502,US,(775) 828-9090,,,,,,
Macy's- Meadowood Mall,,5100 Meadowood Mall Cir ,,Reno ,NV,89502,US,(775) 826-8333,,,,,,
Tilly's-Meadowood Mall,,5000 Meadowood Mall Circle D107 ,,Reno ,NV,89502,US,,,,,,,
Scheels,,1200 Scheels Dr. ,,Sparks ,NV,89434,US,(775) 331-2700,,,,,,
Tilly's-Summit Sierra,,13985 S Virginia St Suite 800 ,,Reno ,NV,89511,US,,,,,,,
Dick's Sporting Goods,,11160 Veirs Mill Rd. ,,Wheaton ,MD,20902,US,(301) 933-3494,,,,,,
REI,,1701 Rockville Pike ,,Rockville ,MD,20852,US,(301) 230-7670,,,,,,
REI,,9801 Rhode Island Ave. ,,College Park ,MD,20740,US,(301) 982-9681,,,,,,
Dick's Sporting Goods,,2 Grand Corner Ave. ,,Gaithersburg ,MD,20878,US,(301) 947-0200,,,,,,
DJ BENNETT,,5335 WISCONSIN AVE NW # 501 ,,WASHINGTON ,DC,20015,US,,,,,,,
Long Beach Windsurf Center,,3850 East Ocean Blvd. ,,Long Beach ,CA,90803,US,(562) 433-1014,,,,,,
O'Neill Surf Shop – Gardenwalk,,321 West Katella Ave. ,,Anaheim ,CA,92802,US,(714) 635-0424,,,,,,
Pacific Sunwear,,3454 East Miraloma Ave. ,,Anaheim ,CA,92806,US,(877) 372-2786,,,,,,
Tilly's-Glendale Galleria,,2180 Glendale ,,Galleria Glendale ,CA,91210,US,,,,,,,
Harbour Surfboards,,329 Main St. ,,Seal Beach ,CA,90740,US,(562) 430-5614,,,,,,
Dick's Sporting Goods,,100 Mall Dr. ,,Steubenville ,OH,43952,US,(740) 266-6323,,,,,,
Dick's Sporting Goods,,675 Route 18 ,,Monaca ,PA,15061,US,(724) 770-9081,,,,,,
Dick's Sporting Goods,,5544 Dressler Rd. NW ,,Canton ,OH,44720,US,(330) 966-0990,,,,,,
Dick's Sporting Goods,,347 Washington Rd. ,,Washington ,PA,15301,US,(724) 229-7556,,,,,,
Dick's Sporting Goods,,5000 Robinson Center Dr. ,,Pittsburgh ,PA,15205,US,(412) 787-1330,,,,,,
Dick's Sporting Goods,,600 Commerce Blvd. ,,Dickson City ,PA,18519,US,(570) 963-1550,,,,,,
Prime Scuba,,360 Route 211 ,,East Middletown ,NY,10940,US,(845) 341-2078,,,,,,
Dick's Sporting Goods,,1 North Galleria Dr. ,,Middletown ,NY,10941,US,(845) 692-5035,,,,,,
Dick's Sporting Goods,,500 Commerce Blvd. ,,Stroudsburg ,PA,18360,US,(570) 421-7501,,,,,,
Dick's Sporting Goods,,479 Arena Hub Plaza ,,Wilkes-Barre ,PA,18702,US,(570) 823-8288,,,,,,
Ski Haus Sports Center,,824 East College Pkwy ,,Annapolis ,MD,21409,US,(410) 757-6444,,,,,,
Dick's Sporting Goods,,486 Marketplace Blvd. ,,Selinsgrove ,PA,17870,US,(570) 743-1780,,,,,,
Eastern Mountain Sports,,525 West Lancaster Ave. ,,Haverford ,PA,19041,US,(610) 520-8000,,,,,,
Tilly's-Annapolis Mall,,1170 Annapolis Mall ,,Annapolis ,MD,21401,US,,,,,,,
NORDSTROM,,1880 Annapolis Mall ,,Annapolis ,MD,21401,US,,,,,,,
Dick's Sporting Goods,,5280 State Route 30 ,,Greensburg ,PA,15601,US,(724) 853-1752,,,,,,
High Mountain Sports,,21327 Garret Hwy ,,Oakland ,MD,21550,US,(301) 387-4199,,,,,,
Dick's Sporting Goods,,501 Monroeville Mall ,,Monroeville ,PA,15146,US,(412) 843-0024,,,,,,
Dick's Sporting Goods,,596 Giant St. ,,Morgantown ,WV,26501,US,(304) 598-0554,,,,,,
Dick's Sporting Goods,,3075 Clairton Rd. ,,West Mifflin ,PA,15123,US,(412) 650-0132,,,,,,
Dick's Sporting Goods,,3120 Lohr Rd. ,,Ann Arbor ,MI,48108,US,(734) 332-6095,,,,,,
REI,,970 West Eisenhower Pkwy ,,Ann Arbor ,MI,48103,US,(734) 827-1938,,,,,,
Red Belly,,1671 Plymouth Rd. ,,Ann Arbor ,MI,48105,US,(734) 222-4704,,,,,,
Dick's Sporting Goods,,2710 South Green Bay Rd. ,,Mt. Pleasant ,WI,53406,US,(262) 554-8117,,,,,,
Windward Boardshop,,1883 2nd St ,,Highland Park ,IL,60035,US,(847) 780-8970,,,,,,
REI,,1209 E Golf Rd. ,,Schaumburg ,IL,60173,US,(847) 619-6729,,,,,,
Dick's Sporting Goods,,328 West Army Trail Rd. ,,Bloomingdale ,IL,60108,US,(630) 351-0823,,,,,,
Dick's Sporting Goods,,One Orland Park Place Orland Park ,,,IL,60462,US,(708) 675-3100,,,,,,
Dick's Sporting Goods,,21830 West Long Grove Rd. ,,Deer Park ,IL,60010,US,(847) 550-1527,,,,,,
Dick's Sporting Goods,,13080 Worth Ave. ,,Woodbridge ,VA,22192,US,(703) 491-9432,,,,,,
WEST MARINE,,16723 General Puller Hwy ,,Deltaville ,VA,23043,US,(804) 776-7890,,,,,,
Dick's Sporting Goods,,46260 Lexington Village Way ,,Lexington Park ,MD,20653,US,(240) 725-0142,,,,,,
Dick's Sporting Goods,,11080 Mall Circle Rd. ,,Waldorf ,MD,20603,US,(301) 885-1762,,,,,,
Dick's Sporting Goods,,8009 Stonewall Shops Square ,,Gainesville ,VA,20155,US,(571) 248-6261,,,,,,
Dick's Sporting Goods,,620 E McGalliard Rd. ,,Muncie ,IN,47303,US,(765) 212-3677,,,,,,
REI,,11950 Grand Common Ave. ,,Fairfax ,VA,22030,US,(571) 522-6568,,,,,,
Dick's Sporting Goods,,12501 Fairlakes Circle ,,Fairfax ,VA,22033,US,(703) 803-0300,,,,,,
Tilly's-CoolSprings Galleria,,1800 Galleria Boulevard Suite 2155 ,,Franklin ,TN,37067,US,,,,,,,
Dick's Sporting Goods,,2000 Mallory Lane ,,Franklin ,TN,37067,US,(615) 778-0595,,,,,,
REI,,261 Franklin Rd. ,,Brentwood ,TN,37027,US,(615) 376-4248,,,,,,
Sun & Ski,,501 Opry Mills Drive ,,Nashville ,TN,37214,US,(615) 886-4854,,,,,,
Tilly's-Opry Mills,,477 Opry Mills Drive ,,Nashville ,TN,37214,US,,,,,,,
Overtons,,111 Red Banks Rd ,,Greenville ,NC,27858,US,(800) 334-6541,,,,,,
CATALOG CONNECTION,,210 E 5th St ,,Greenville ,NC,27858,US,,,,,,,
Dick's Sporting Goods,,2300 Gary Farms Blvd. ,,Bowling Green ,KY,42104,US,(270) 796-9115,,,,,,
Dick's Sporting Goods,,2850 East 3rd St. ,,Bloomington ,IN,47401,US,(812) 335-1377,,,,,,
Dick's Sporting Goods,,434 Pinnacle Pkwy ,,Bristol ,TN,37620,US,(423) 271-6696,,,,,,
Dick's Sporting Goods,,1860 Catawba Valley Blvd. SE ,,Hickory ,NC,28602,US,(828) 431-3025,,,,,,
InFlight Surf & Sail,,1250 Pacific Coast Hwy ,,Seal Beach ,CA,90740,US,(562) 493-3661,,,,,,
Macy's- Westminster Mall,,300 Westminster Mall ,,Westminster ,CA,92683,US,(714) 657-3333,,,,,,
DIANE'S BEACHWEAR,,2401 W 208th St # 4 ,,Torrance ,CA,90501,US,,,,,,,
Tilly's-The Outlets at Orange,,20 City Blvd West Bld K Suite 406 ,,Orange ,CA,92868,US,,,,,,,
PACSUN,,20 City Blvd E # 203 ,,Orange ,CA,92868,US,,,,,,,
Dick's Sporting Goods,,2626 East Stone Dr. ,,Kingsport ,TN,37660,US,(423) 245-3412,,,,,,
WEST MARINE,,7812 KINGSTON PIKE ,,KNOXVILLE ,TN,37919,US,,,,,,,
Sun & Ski,,203 Muddy Branch Rd. ,,Gaithersburg ,MD,20878,US,(301) 948-5200,,,,,,
Eastern Mountain Sports,,200 Harker Place ,,Annapolis ,MD,21401,US,(410) 573-1240,,,,,,
BROWN EYED GIRL,,234 Main St ,,Annapolis ,MD,21401,US,,,,,,,
East of Maui,,2444 Solomons Island Rd ,,Annapolis ,MD,21401,US,(410) 573-9463,,,,,,
Dick's Sporting Goods,,2430 Chemical Rd. ,,Plymouth Meeting ,PA,19462,US,(610) 260-4400,,,,,,
Village Ski Loft,,800 Tahoe Blvd. ,,Incline Village ,NV,89450,US,(775) 831-3537,,,,,,
Tahoe Paddle And Oar,,8299 North Lake Blvd. ,,Kings Beach ,CA,96143,US,(530) 581-3029,,,,,,
THE SPORTS EXCHANGE,,10095 W River St ,,Truckee ,CA,96161,US,,,,,,,
START HAUS,,10990 Donner Pass Rd ,,Truckee ,CA,96161,US,,,,,,,
Tahoe Mountain Sports,,11200 Donner Pass Rd. ,,Truckee ,CA,96161,US,(530) 546-7001,,,,,,
Chicago Sea Ray,,215 North Point Dr. ,,Winthrope Harbor ,IL,60096,US,(815) 385-2720,,,,,,
Southport Rigging/Supply,,2926 75th St. ,,Kenosha ,WI,53140,US,(262) 652-3126,,,,,,
Dick's Sporting Goods,,44225 W 12 Mile Rd. ,,Novi ,MI,48377,US,(248) 596-3400,,,,,,
EOS Surf & Outdoor,,510 N 8th St ,,Sheboygan ,WI,53081,US,(920) 208-7873,,,,,,
Dick's Sporting Goods,,1020 Port Washington Rd. ,,Grafton ,WI,53024,US,(262) 377-6349,,,,,,
REI,,1140 Woodruff Rd. ,,Greenville ,SC,29607,US,(864) 297-0588,,,,,,
Dick's Sporting Goods,,1125 Woodruff Rd. ,,Greenville ,SC,29607,US,(864) 284-6199,,,,,,
PACSUN,,700 Haywood Road ,,Greenville ,SC,29607,US,,,,,,,
Dick's Sporting Goods,,350 East Waterfront Dr. ,,Homestead ,PA,15120,US,(412) 476-9940,,,,,,
REI,,412 S 27th St. ,,Pittsburgh ,PA,15203,US,(412) 488-9410,,,,,,
Dick's Sporting Goods,,301 South Hills Village ,,Pittsburgh ,PA,15241,US,(412) 831-5570,,,,,,
Dick's Sporting Goods,,329 Pittsburgh Mills Circle ,,Tarentum ,PA,15084,US,(724) 274-0240,,,,,,
REI,,600 Settlers Ridge ,,Pittsburgh ,PA,15205,US,(412) 747-1180,,,,,,
Dick's Sporting Goods,,347 Court St. ,,Binghamton ,NY,13904,US,(607) 724-4361,,,,,,
Dick's Sporting Goods,,2437 Vestal Pkwy ,,East Vestal ,NY,13850,US,(607) 797-5220,,,,,,
Dick's Sporting Goods,,387 Mount Hope Ave. ,,Rockaway ,NJ,7866,US,(973) 659-1950,,,,,,
Dick's Sporting Goods,,5006 State Hwy 23 ,,Oneonta ,NY,13820,US,(607) 432-0203,,,,,,
Pelican Sport Center,,2980 NJ-10 ,,Morris Plains ,NJ,7950,US,(973) 267-0964,,,,,,
Dick's Sporting Goods,,2305 Gallatin Pike ,,North Madison ,TN,37115,US,(615) 855-1443,,,,,,
Dick's Sporting Goods,,401 South Mt. Juliet Rd. ,,Mt. Juliet ,TN,37122,US,(615) 773-6160,,,,,,
Dick's Sporting Goods,,376 Cox Creek Pkwy ,,Florence ,AL,35630,US,(256) 760-4211,,,,,,
Dick's Sporting Goods,,2615 Medical Center Pkwy ,,Murfreesboro ,TN,37129,US,(615) 896-8882,,,,,,
Dick's Sporting Goods,,6601 East Lloyd Expy ,,Evansville ,IN,47715,US,(812) 402-9100,,,,,,
Dick's Sporting Goods,,10202 East Washington St. ,,Indianapolis ,IN,46229,US,(317) 890-8802,,,,,,
Tilly's-Eastland Mall,,800 N. Green River Road 78 ,,Evansville ,IN,47715,US,,,,,,,
PACSUN,,7600 Kingston Pike ,,Knoxville ,TN,37919,US,,,,,,,
REI,,6700 Papermill Dr. ,,Knoxville ,TN,37919,US,(865) 584-1938,,,,,,
Dick's Sporting Goods,,1500 River Valley Circle South ,,Lancaster ,OH,43130,US,(740) 654-6215,,,,,,
Dick's Sporting Goods,,221 North Peters Rd. ,,Knoxville ,TN,37923,US,(865) 531-2221,,,,,,
Katin Surf Shop,,16250 Pacific Coast Hwy ,,Huntington Beach ,CA,92649,US,(562) 592-2052,,,,,,
O'Neill Outlet – Orange,,20 City Blvd W ,,Orange ,CA,92868,US,,,,,,,
PACSUN,,1500 E Village Way # 2163 ,,Orange ,CA,92865,US,,,,,,,
Tilly's-Galleria at South Bay,,1815 Hawthorne Blvd Suite 380 ,,Redondo Beach ,CA,90278,US,,,,,,,
Macy's- South Bay Galleria,,1801 Hawthorne Blvd ,,Redondo Beach ,CA,90278,US,(310) 370-2511,,,,,,
NORDSTROM,,1400 S Hayes St ,,Arlington ,VA,22202,US,,,,,,,
REI,,8209 Watson St. ,,McLean ,VA,22102,US,(703) 506-1938,,,,,,
Sunrise Sports,,3790 Hwy 395 ,,Carson City ,CA,89705,US,(775) 588-8463,,,,,,
Tahoe City Marine Supply,,700 North Lake Blvd. ,,Tahoe City ,CA,96145,US,(530) 583-0925,,,,,,
TAHOE MARINE SUPPLY,,700 N Lake Blvd ,,Tahoe City ,CA,96145,US,,,,,,,
Tahoe Daves,,590 North Lake Blvd. ,,Tahoe City ,CA,96145,US,(800) 398-8915,,,,,,
WILLARDS SPORT SHOP,,170 N Lake Blvd ,,Tahoe City ,CA,96145,US,,,,,,,
REI,,200 West Ridge Pike ,,Conshohocken ,PA,19428,US,(610) 940-0809,,,,,,
Dick's Sporting Goods,,17780 Garland Groh Blvd. ,,Hagerstown ,MD,21740,US,(240) 420-0140,,,,,,
Dick's Sporting Goods,,355 Azalea Sq. Blvd. ,,Summerville ,SC,29483,US,(843) 873-4065,,,,,,
Dick's Sporting Goods,,C138 Morganton Heights Blvd. ,,Morganton ,NC,28655,US,(828) 433-8332,,,,,,
Dick's Sporting Goods,,600 Coastal Grand Circle ,,Myrtle Beach ,SC,29577,US,(843) 916-9148,,,,,,
Dick's Sporting Goods,,3450 Wrightsboro Rd. ,,Augusta ,GA,30909,US,(706) 733-1199,,,,,,
Dick's Sporting Goods,,149 Falon Lane ,,Altoona ,PA,16602,US,(814) 941-2273,,,,,,
Dick's Sporting Goods,,830 Providence Blvd. ,,Pittsburgh ,PA,15237,US,(412) 548-0012,,,,,,
Dick's Sporting Goods,,2021 Mackenzie Way ,,Cranberry Twp ,PA,16066,US,(724) 778-3010,,,,,,
Dick's Sporting Goods,,2001 South Rd. ,,Poughkeepsie ,NY,12601,US,(845) 297-4767,,,,,,
Dick's Sporting Goods,,1300 Ulster Ave. ,,Kingston ,NY,12401,US,(845) 382-2151,,,,,,
Dick's Sporting Goods,,4423 Birkland Place ,,Easton ,PA,18045,US,(610) 330-0383,,,,,,
Dick's Sporting Goods,,76 Willowbrook Blvd. ,,Wayne ,NJ,7470,US,(973) 200-8077,,,,,,
Dick's Sporting Goods,,240 Route 10 West Suite East ,,Hanover ,NJ,7936,US,(973) 428-0889,,,,,,
Tilly's-Wolfchase Galleria,,2760 N. Germantown Parkway Ste. # 1290 ,,Memphis ,TN,38133,US,,,,,,,
Dick's Sporting Goods,,2393 North Germantown Pkwy ,,Cordova ,TN,38016,US,(901) 386-5302,,,,,,
Dick's Sporting Goods,,1250 East Main St. ,,Carbondale ,IL,62901,US,(618) 549-7581,,,,,,
Dick's Sporting Goods,,7766 Polo Grounds Blvd. ,,Memphis ,TN,38125,US,(901) 737-2216,,,,,,
Dick's Sporting Goods,,9899 76th St. ,,Kenosha ,WI,53158,US,(262) 697-5764,,,,,,
Action Water Sports,,988 West Commerce Dr. ,,Traverse City ,MI,49684,US,(231) 943-3434,,,,,,
Tilly's-Southridge Mall,,5300 South 76th Street ,,Greendale ,WI,53129,US,,,,,,,
Dick's Sporting Goods,,21061 Haggerty Rd. ,,Novi ,MI,48375,US,(248) 735-8180,,,,,,
REI,,17559 Haggerty Rd. ,,Northville ,MI,48168,US,(248) 347-2100,,,,,,
Dick's Sporting Goods,,2011 North Roan St. ,,Johnson City ,TN,37601,US,(423) 282-4430,,,,,,
Tilly's-Diamond Ridge Marketplace,,1327 E. Gladstone St ,,Glendora ,CA,91740,US,,,,,,,
Huntington Surf & Sport,,7777 Edinger Ave. ,,Huntington Beach ,CA,92647,US,(714) 890-0800,,,,,,
Dick's Sporting Goods,,7542 Edinger Ave. ,,Huntington Beach ,CA,92647,US,(714) 847-3179,,,,,,
The Surfer'S Outlet,,16350 Gothard St. ,,Huntington Beach ,CA,92647,US,(714) 698-5757,,,,,,
REI,,1800 Rosecrans Ave. ,,Manhattan Beach ,CA,90266,US,(310) 727-0728,,,,,,
Willard's Sport Shop,,170 North Lake Blvd. ,,Tahoe City ,CA,96145,US,(530) 583-3356,,,,,,
High Sierra Waterski School,,1850 West Lake Blvd. ,,Tahoe City ,CA,96145,US,(530) 583-7417,,,,,,
Obexter's Boat Company,,5355 West Lake Blvd. ,,Homewood ,CA,96141,US,(916) 525-7962,,,,,,
Sunrise Sports,,237 Tramway ,,Stateline ,NV,89449,US,(775) 586-8168,,,,,,
Tahoe Sports Ltd.,,4000 Lake Tahoe Blvd. ,,South Lake Tahoe ,CA,96150,US,(530) 542-4000,,,,,,
Dick's Sporting Goods,,113 Montgomery Mall ,,North Wales ,PA,19454,US,(215) 368-2186,,,,,,
Pelican Sport Center,,1230 NW End Blvd. ,,Quakertown ,PA,18951,US,(215) 538-2922,,,,,,
Wetsuit Wearhouse,,400 South Conococheague St. ,,Williamsport ,MD,21795,US,(866) 906-7848,,,,,,
Tilly's-Lehigh Valley Mall,,170 Lehigh Valley Mall ,,Whitehall ,PA,18052,US,,,,,,,
Eternal Wave Surf Shop,,837 Surfside Dr. ,,Surfside Beach ,SC,29575,US,(843) 839-1239,,,,,,
Tsunami Surf Shop,,1421 Dividend Loop ,,Myrtle Beach ,SC,29576,US,(843) 626-6562,,,,,,
PACSUN,,2150 Northwoods Blvd # 21A ,,North Charleston ,SC,29406,US,,,,,,,
Wallerbears Surf Shop,,4723 South King Hwy ,,Myrtle Beach ,Sc,29575,US,(843) 238-4079,,,,,,
Dick's Sporting Goods,,2040 Meadowbrook Mall ,,Bridgeport ,WV,26330,US,(304) 848-0482,,,,,,
Dick's Sporting Goods,,1521 North Main St. Ext ,,Butler ,PA,16001,US,(724) 284-8140,,,,,,
Dick's Sporting Goods,,398 Retail Commons Pkwy ,,Martinsburg ,WV,25403,US,(304) 263-1225,,,,,,
Dick's Sporting Goods,,1675 South Pleasant Valley Rd. ,,Winchester ,VA,22601,US,(540) 431-3487,,,,,,
REI,,280 State Route 10 East ,,Hanover ,NJ,7936,US,(973) 581-1938,,,,,,
Dick's Sporting Goods,,2631 MacArthur Rd. ,,Whitehall ,PA,18052,US,(610) 231-0691,,,,,,
Dick's Sporting Goods,,2400 Palisades Center Dr. ,,West Nyack ,NY,10994,US,(845) 353-1086,,,,,,
Pelican Sport Center,,3555 Route 22 ,,Somerville ,NJ,8876,US,(908) 534-2534,,,,,,
Dick's Sporting Goods,,1112 Western Blvd. ,,Jacksonville ,NC,28546,US,(910) 455-0928,,,,,,
Dick's Sporting Goods,,700 North Milwaukee Ave ,,Vernon Hills ,IL,60061,US,(847) 573-8240,,,,,,
Dick's Sporting Goods,,7370 West 191st ,,Tinley Park ,IL,60487,US,(815) 806-4952,,,,,,
Dick's Sporting Goods,,2763 West 75th St. ,,Naperville ,IL,60540,US,(630) 548-1476,,,,,,
Dick's Sporting Goods,,10251 Indianapolis Blvd. ,,Highland ,IN,46322,US,(219) 924-2237,,,,,,
Dick's Sporting Goods,,618 Commons Dr. ,,Geneva ,IL,60134,US,(630) 943-4100,,,,,,
Dick's Sporting Goods,,12300 Jefferson Ave. ,,Newport News ,VA,23602,US,(757) 249-2140,,,,,,
Tilly's-Patrick Henry Mall,,12300 Jefferson Avenue 218 ,,Newport News ,VA,23602,US,,,,,,,
Macy's- Patrick Henry Mall,,12300 Jefferson Ave ,,Newport News ,VA,23602,US,(757) 249-1656,,,,,,
Dick's Sporting Goods,,10800 Sudley Manor Dr. ,,Manassas ,VA,20109,US,(703) 257-4300,,,,,,
Tilly's-Southern Park Mall,,7401 Market St. 763 ,,Youngstown ,OH,44512,US,,,,,,,
Dick's Sporting Goods,,550 Boardman Poland Rd. ,,Boardman ,OH,44512,US,(330) 629-6871,,,,,,
Dick's Sporting Goods,,6275 University Dr. NW ,,Huntville ,AL,35806,US,(256) 922-9912,,,,,,
Dick's Sporting Goods,,1001 Barnes Crossing Rd. ,,Tupelo ,MS,38804,US,(662) 844-5799,,,,,,
Dick's Sporting Goods,,2718 Carl T Jones Dr. SE ,,Huntsville ,AL,35802,US,(256) 881-3212,,,,,,
GLIKS,,634 Niblack Blvd ,,Vincennes ,IN,47591,US,,,,,,,
Dick's Sporting Goods,,339 Metropolis ,,Mile Plainfield ,IN,46168,US,(317) 839-4803,,,,,,
Dick's Sporting Goods,,10375 East US Hwy 36 ,,Avon ,IN,46123,US,(317) 271-7850,,,,,,
Dick's Sporting Goods,,221 Hamilton Crossing Dr. ,,Alcoa ,TN,37701,US,(865) 379-1480,,,,,,
Xsile Sports,,1118 S. La Cienega ,,Los Angeles ,CA,90035,US,(310) 855-1946,,,,,,
Diver's Outlet,,329 West Bonita Ave. ,,San Dimas ,CA,91773,US,(909) 394-2180,,,,,,
Play It Again sports,,4868 190th St. ,,Torrence ,CA,90503,US,(310) 921-2800,,,,,,
Huntington Surf & Sport,,3801 Warner Ave. ,,Huntington Beach ,CA,92649,US,(714) 846-0181,,,,,,
Macy's- Main Place Mall,,2850 N Main St ,,Santa Ana ,CA,92705,US,(714) 547-7211,,,,,,
Skiers Pier,,2505 Dixie Hwy ,,Waterford ,MI,48328,US,(248) 674-4888,,,,,,
SHERPERS,,5750 S 108th St ,,Hales Corners ,WI,53130,US,,,,,,,
Dick's Sporting Goods,,45700 Michigan Ave. ,,Canton ,MI,48188,US,(734) 495-0387,,,,,,
Tilly's-Baldwin Commons,,4812 South Baldwin Road ,,Orion Township ,MI,48359,US,,,,,,,
Dick's Sporting Goods,,11500 West Burleigh St. ,,Wauwatosa ,WI,53222,US,(414) 203-1380,,,,,,
SIDESTREET BOUTIQUE,,4000 Lake Tahoe Blvd # 19 ,,South Lake Tahoe ,CA,96150,US,,,,,,,
The Village,,3552 Lake Tahoe Blvd. ,,South Lake Tahoe ,CA,96150,US,(530) 541-4444,,,,,,
SOUTH TAHOE STANDUP PADDLE,,3115 Harrison Ave ,,South Lake Tahoe ,CA,96150,US,,,,,,,
Tahoe Sports Ltd.,,1032 Emerald Bay Blvd. ,,South Lake Tahoe ,CA,96150,US,(530) 542-4000,,,,,,
SIERRA AT TAHOE,,1111 Sierra at Tahoe Rd ,,Twin Bridges ,CA,95735,US,,,,,,,
Dick's Sporting Goods,,1365 N DuPont Hwy ,,Dover ,DE,19901,US,(302) 678-9160,,,,,,
Dick's Sporting Goods,,2510 West Moreland Rd. ,,Willow Grove ,PA,19090,US,(215) 657-8977,,,,,,
Dick's Sporting Goods,,399 Almonesson Rd. ,,Deptford ,NJ,8096,US,(856) 384-8533,,,,,,
Ron Jon Surf Shop,,1308 Celebrity Circle ,,Myrtle Beach ,SC,29577,US,(843) 448-8882,,,,,,
Ron Jons Surf Shop,,1308 Celebrity Circle # R-9 ,,Myrtle Beach ,SC,29577,US,(843) 448-8882,,,,,,
Halfmoon Outfitters,,1084 East Montague Ave ,,North Charleston ,SC,29405,US,(877) 846-7589,,,,,,
Dick's Sporting Goods,,240 N State Route 17 ,,Paramus ,NJ,7652,US,(201) 261-2926,,,,,,
Dick's Sporting Goods,,2700A Route 22 ,,East Union ,NJ,7083,US,(908) 964-2580,,,,,,
Dick's Sporting Goods,,45 Fitzgerald St. ,,Yonkers ,NY,10710,US,(914) 964-0580,,,,,,
REI,,49 Fitzgerald St. ,,Yonkers ,NY,10710,US,(914) 410-9500,,,,,,
MCNULTY'S GIFTS,,5522 Shaffer Rd # 64 ,,DuBois ,PA,15801,US,,,,,,,
Dick's Sporting Goods,,325 Colonade Blvd. ,,State College ,PA,16803,US,(814) 861-1350,,,,,,
Tilly's-Jacksonville Mall,,377 Jacksonville Mall H000 ,,Jacksonville ,NC,28546,US,,,,,,,
ISLAND PASSAGE,,4 Market St ,,Wilmington ,NC,28401,US,,,,,,,
PACSUN,,3500 Oleander Dr ,,Wilmington ,NC,28403,US,,,,,,,
Hot Wax Surf Shop,,4510 Hoggard Dr. ,,Wilmington ,NC,28403,US,(910) 791-9283,,,,,,
Tilly's-G